STARLINK-35283          
1 66478U 25262Y   26068.36374097  .00031085  00000+0  11366-2 0  9994
2 66478  43.0014 298.2538 0000145 356.6207   3.4644 15.27514359 18856
STARLINK-36554          
1 67502U 26012K   26067.71268370  .00032833  00000+0  11969-2 0  9992
2 67502  42.9934 319.8184 0000695 339.2059  20.8765 15.27591469  7619
