[{"OBJECT_NAME":"STARLINK-35283","OBJECT_ID":"2025-262Y","EPOCH":"2026-03-09T08:43:47.219808","MEAN_MOTION":15.27514359,"ECCENTRICITY":1.455e-5,"INCLINATION":43.0014,"RA_OF_ASC_NODE":298.2538,"ARG_OF_PERICENTER":356.6207,"MEAN_ANOMALY":3.4644,"EPHEMERIS_TYPE":0,"CLASSIFICATION_TYPE":"U","NORAD_CAT_ID":66478,"ELEMENT_SET_NO":999,"REV_AT_EPOCH":1885,"BSTAR":0.0011366478,"MEAN_MOTION_DOT":0.00031085,"MEAN_MOTION_DDOT":0},{"OBJECT_NAME":"STARLINK-36554","OBJECT_ID":"2026-012K","EPOCH":"2026-03-08T17:06:15.871680","MEAN_MOTION":15.27591469,"ECCENTRICITY":6.955e-5,"INCLINATION":42.9934,"RA_OF_ASC_NODE":319.8184,"ARG_OF_PERICENTER":339.2059,"MEAN_ANOMALY":20.8765,"EPHEMERIS_TYPE":0,"CLASSIFICATION_TYPE":"U","NORAD_CAT_ID":67502,"ELEMENT_SET_NO":999,"REV_AT_EPOCH":761,"BSTAR":0.0011969118,"MEAN_MOTION_DOT":0.00032833,"MEAN_MOTION_DDOT":0}]
